STARLINK-2667
1 18663C 21044AB  21326.14929198 -.00000778  00000-0 -52106-4 0  3261
2 18663  53.0550 313.0569 0001697  60.9733 348.9108 15.06391344    15
